ADRAS-J                 
1 58992U 24034A   24156.51895644  .00004922  00000+0  45971-3 0  9991
2 58992  98.2105 128.9676 0045592  90.6890 269.9553 14.93877879 15970
